; G-code Simulation
; Generated by MSc Project - Safa Dana
; Task: Pick and place 'carrot'
; Generated at: 2025-08-07 11:15:33

G0 Z5 ; lift to Safe Z 

; carrot #1 :
G0 X102.00 Y42.00 Z5 ; move above object
G0 Z0 ; lower to pick
M3 ; pick
G0 Z5 ; lift
G0 X0.00 Y0.00 ; move to destination
G0 Z0 ; lower to place
M5 ; place
G0 Z5 ; lift up 

; carrot #2 :
G0 X232.00 Y102.00 Z5 ; move above object
G0 Z0 ; lower to pick
M3 ; pick
G0 Z5 ; lift
G0 X0.00 Y0.00 ; move to destination
G0 Z0 ; lower to place
M5 ; place
G0 Z5 ; lift up 

; carrot #3 :
G0 X108.00 Y228.00 Z5 ; move above object
G0 Z0 ; lower to pick
M3 ; pick
G0 Z5 ; lift
G0 X0.00 Y0.00 ; move to destination
G0 Z0 ; lower to place
M5 ; place
G0 Z5 ; lift up 

; carrot #4 :
G0 X134.00 Y154.00 Z5 ; move above object
G0 Z0 ; lower to pick
M3 ; pick
G0 Z5 ; lift
G0 X0.00 Y0.00 ; move to destination
G0 Z0 ; lower to place
M5 ; place
G0 Z5 ; lift up 

; carrot #5 :
G0 X272.00 Y192.00 Z5 ; move above object
G0 Z0 ; lower to pick
M3 ; pick
G0 Z5 ; lift
G0 X0.00 Y0.00 ; move to destination
G0 Z0 ; lower to place
M5 ; place
G0 Z5 ; lift up 

; carrot #6 :
G0 X24.00 Y144.00 Z5 ; move above object
G0 Z0 ; lower to pick
M3 ; pick
G0 Z5 ; lift
G0 X0.00 Y0.00 ; move to destination
G0 Z0 ; lower to place
M5 ; place
G0 Z5 ; lift up 

; carrot #7 :
G0 X352.00 Y52.00 Z5 ; move above object
G0 Z0 ; lower to pick
M3 ; pick
G0 Z5 ; lift
G0 X0.00 Y0.00 ; move to destination
G0 Z0 ; lower to place
M5 ; place
G0 Z5 ; lift up 

G0 X0 Y0 ; Go to home position
