; G-code Simulation
; Generated by MSc Project - Safa Dana
; Task: Pick and place 'kiwi'
; Generated at: 2025-08-07 11:07:51

G0 Z5 ; lift to Safe Z 

; kiwi #1 :
G0 X304.00 Y54.00 Z5 ; move above object
G0 Z0 ; lower to pick
M3 ; pick
G0 Z5 ; lift
G0 X0.00 Y0.00 ; move to destination
G0 Z0 ; lower to place
M5 ; place
G0 Z5 ; lift up 

; kiwi #2 :
G0 X334.00 Y164.00 Z5 ; move above object
G0 Z0 ; lower to pick
M3 ; pick
G0 Z5 ; lift
G0 X0.00 Y0.00 ; move to destination
G0 Z0 ; lower to place
M5 ; place
G0 Z5 ; lift up 

; kiwi #3 :
G0 X54.00 Y64.00 Z5 ; move above object
G0 Z0 ; lower to pick
M3 ; pick
G0 Z5 ; lift
G0 X0.00 Y0.00 ; move to destination
G0 Z0 ; lower to place
M5 ; place
G0 Z5 ; lift up 

; kiwi #4 :
G0 X191.00 Y241.00 Z5 ; move above object
G0 Z0 ; lower to pick
M3 ; pick
G0 Z5 ; lift
G0 X0.00 Y0.00 ; move to destination
G0 Z0 ; lower to place
M5 ; place
G0 Z5 ; lift up 

; kiwi #5 :
G0 X201.00 Y141.00 Z5 ; move above object
G0 Z0 ; lower to pick
M3 ; pick
G0 Z5 ; lift
G0 X0.00 Y0.00 ; move to destination
G0 Z0 ; lower to place
M5 ; place
G0 Z5 ; lift up 

; kiwi #6 :
G0 X321.00 Y251.00 Z5 ; move above object
G0 Z0 ; lower to pick
M3 ; pick
G0 Z5 ; lift
G0 X0.00 Y0.00 ; move to destination
G0 Z0 ; lower to place
M5 ; place
G0 Z5 ; lift up 

; kiwi #7 :
G0 X171.00 Y51.00 Z5 ; move above object
G0 Z0 ; lower to pick
M3 ; pick
G0 Z5 ; lift
G0 X0.00 Y0.00 ; move to destination
G0 Z0 ; lower to place
M5 ; place
G0 Z5 ; lift up 

; kiwi #8 :
G0 X74.00 Y184.00 Z5 ; move above object
G0 Z0 ; lower to pick
M3 ; pick
G0 Z5 ; lift
G0 X0.00 Y0.00 ; move to destination
G0 Z0 ; lower to place
M5 ; place
G0 Z5 ; lift up 

G0 X0 Y0 ; Go to home position
