; G-code Simulation
; Generated by MSc Project - Safa Dana
; Task: Pick and place 'kiwi'
; Generated at: 2025-07-18 13:25:28
;
G0 Z5 ; lift to Safe Z
; kiwi #1 :
G0 X71.00 Y71.00 Z5 ; move above object
G0 Z0 ; lower to pick
M3 ; pick
G0 Z5 ; lift
G0 X0.00 Y0.00 ; move to destination
G0 Z0 ; lower to place
M5 ; place
G0 Z5 ; lift up


; kiwi #2 :
G0 X344.00 Y154.00 Z5 ; move above object
G0 Z0 ; lower to pick
M3 ; pick
G0 Z5 ; lift
G0 X0.00 Y0.00 ; move to destination
G0 Z0 ; lower to place
M5 ; place
G0 Z5 ; lift up


; kiwi #3 :
G0 X311.00 Y51.00 Z5 ; move above object
G0 Z0 ; lower to pick
M3 ; pick
G0 Z5 ; lift
G0 X0.00 Y0.00 ; move to destination
G0 Z0 ; lower to place
M5 ; place
G0 Z5 ; lift up


; kiwi #4 :
G0 X331.00 Y231.00 Z5 ; move above object
G0 Z0 ; lower to pick
M3 ; pick
G0 Z5 ; lift
G0 X0.00 Y0.00 ; move to destination
G0 Z0 ; lower to place
M5 ; place
G0 Z5 ; lift up


; kiwi #5 :
G0 X181.00 Y61.00 Z5 ; move above object
G0 Z0 ; lower to pick
M3 ; pick
G0 Z5 ; lift
G0 X0.00 Y0.00 ; move to destination
G0 Z0 ; lower to place
M5 ; place
G0 Z5 ; lift up


; kiwi #6 :
G0 X74.00 Y204.00 Z5 ; move above object
G0 Z0 ; lower to pick
M3 ; pick
G0 Z5 ; lift
G0 X0.00 Y0.00 ; move to destination
G0 Z0 ; lower to place
M5 ; place
G0 Z5 ; lift up


; kiwi #7 :
G0 X198.00 Y258.00 Z5 ; move above object
G0 Z0 ; lower to pick
M3 ; pick
G0 Z5 ; lift
G0 X0.00 Y0.00 ; move to destination
G0 Z0 ; lower to place
M5 ; place
G0 Z5 ; lift up


; kiwi #8 :
G0 X204.00 Y144.00 Z5 ; move above object
G0 Z0 ; lower to pick
M3 ; pick
G0 Z5 ; lift
G0 X0.00 Y0.00 ; move to destination
G0 Z0 ; lower to place
M5 ; place
G0 Z5 ; lift up


G0 X0 Y0 ; Go to home position
