; G-code Simulation
; Generated by MSc Project - Safa Dana
; Task: Pick and place 'kiwi'
; Generated at: 2025-07-24 13:32:01

G0 Z5 ; lift to Safe Z 

; kiwi #1 :
G0 X344.00 Y164.00 Z5 ; move above object
G0 Z0 ; lower to pick
M3 ; pick
G0 Z5 ; lift
G0 X0.00 Y0.00 ; move to destination
G0 Z0 ; lower to place
M5 ; place
G0 Z5 ; lift up 

; kiwi #2 :
G0 X64.00 Y64.00 Z5 ; move above object
G0 Z0 ; lower to pick
M3 ; pick
G0 Z5 ; lift
G0 X0.00 Y0.00 ; move to destination
G0 Z0 ; lower to place
M5 ; place
G0 Z5 ; lift up 

; kiwi #3 :
G0 X321.00 Y231.00 Z5 ; move above object
G0 Z0 ; lower to pick
M3 ; pick
G0 Z5 ; lift
G0 X0.00 Y0.00 ; move to destination
G0 Z0 ; lower to place
M5 ; place
G0 Z5 ; lift up 

; kiwi #4 :
G0 X304.00 Y54.00 Z5 ; move above object
G0 Z0 ; lower to pick
M3 ; pick
G0 Z5 ; lift
G0 X0.00 Y0.00 ; move to destination
G0 Z0 ; lower to place
M5 ; place
G0 Z5 ; lift up 

; kiwi #5 :
G0 X204.00 Y154.00 Z5 ; move above object
G0 Z0 ; lower to pick
M3 ; pick
G0 Z5 ; lift
G0 X0.00 Y0.00 ; move to destination
G0 Z0 ; lower to place
M5 ; place
G0 Z5 ; lift up 

; kiwi #6 :
G0 X174.00 Y64.00 Z5 ; move above object
G0 Z0 ; lower to pick
M3 ; pick
G0 Z5 ; lift
G0 X0.00 Y0.00 ; move to destination
G0 Z0 ; lower to place
M5 ; place
G0 Z5 ; lift up 

; kiwi #7 :
G0 X204.00 Y254.00 Z5 ; move above object
G0 Z0 ; lower to pick
M3 ; pick
G0 Z5 ; lift
G0 X0.00 Y0.00 ; move to destination
G0 Z0 ; lower to place
M5 ; place
G0 Z5 ; lift up 

; kiwi #8 :
G0 X61.00 Y191.00 Z5 ; move above object
G0 Z0 ; lower to pick
M3 ; pick
G0 Z5 ; lift
G0 X0.00 Y0.00 ; move to destination
G0 Z0 ; lower to place
M5 ; place
G0 Z5 ; lift up 

G0 X0 Y0 ; Go to home position
